NORAD_CAT_ID,OBJECT_NAME,OBJECT_TYPE,EPOCH,MEAN_MOTION,ECCENTRICITY,INCLINATION,RA_OF_ASC_NODE,ARG_OF_PERICENTER,MEAN_ANOMALY,BSTAR,MEAN_MOTION_DOT,MEAN_MOTION_DDOT,TLE_LINE0,TLE_LINE1,TLE_LINE2,SEMIMAJOR_AXIS,PERIOD,APOGEE,PERIGEE,DECAYED
53895.0,STARLINK-5032,PAYLOAD,2023-12-02 11:25:21,15.08852317,0.0001423,53.218,82.035,98.8766,261.2388,0.00014311,1.991e-05,0.0,0 STARLINK-5032,1 53895U 22119K   23336.47594417  .00001991  00000-0  14311-3 0  9996,2 53895  53.2180  82.0350 0001423  98.8766 261.2388 15.08852317 66230,6917.843,95.437,540.692,538.723,0.0
53895.0,STARLINK-5032,PAYLOAD,2023-12-02 14:36:07,15.08862233,0.0001344,53.2178,81.4352,86.8048,273.3098,0.00020662,3.004e-05,0.0,0 STARLINK-5032,1 53895U 22119K   23336.60841516  .00003004  00000-0  20662-3 0  9999,2 53895  53.2178  81.4352 0001344  86.8048 273.3098 15.08862233 66672,6917.812,95.436,540.607,538.748,0.0
53895.0,STARLINK-5032,PAYLOAD,2023-12-03 11:16:10,15.08826276,0.0001409,53.2183,77.565,107.5552,252.5594,-0.00011804,-2.165e-05,0.0,0 STARLINK-5032,1 53895U 22119K   23337.46957083 -.00002165  00000-0 -11804-3 0  9998,2 53895  53.2183  77.5650 0001409 107.5552 252.5594 15.08826276 66383,6917.922,95.438,540.762,538.813,0.0
53895.0,STARLINK-5032,PAYLOAD,2023-12-03 14:26:58,15.08815241,0.0001528,53.219,76.9787,76.4546,283.6617,-0.00021583,-3.719e-05,0.0,0 STARLINK-5032,1 53895U 22119K   23337.60206360 -.00003719  00000-0 -21583-3 0  9990,2 53895  53.2190  76.9787 0001528  76.4546 283.6617 15.08815241 66824,6917.956,95.439,540.878,538.764,0.0
53895.0,STARLINK-5032,PAYLOAD,2023-12-03 16:02:21,15.08818935,0.0001311,53.2184,76.6782,83.3767,276.7375,-0.00019224,-3.344e-05,0.0,0 STARLINK-5032,1 53895U 22119K   23337.66830053 -.00003344  00000-0 -19224-3 0  9991,2 53895  53.2184  76.6782 0001311  83.3767 276.7375 15.08818935 66413,6917.945,95.439,540.717,538.903,0.0
53895.0,STARLINK-5032,PAYLOAD,2023-12-04 11:06:58,15.08839463,0.0001269,53.2186,73.1097,76.2528,283.8606,-0.00015288,-2.72e-05,0.0,0 STARLINK-5032,1 53895U 22119K   23338.46317289 -.00002720  00000-0 -15288-3 0  9994,2 53895  53.2186  73.1097 0001269  76.2528 283.8606 15.08839463 66532,6917.882,95.438,540.625,538.869,0.0
53895.0,STARLINK-5032,PAYLOAD,2023-12-04 12:42:21,15.08836017,0.0001868,53.2171,72.8174,51.2019,308.914,-7.3072e-05,-1.451e-05,0.0,0 STARLINK-5032,1 53895U 22119K   23338.52941428 -.00001451  00000-0 -73072-4 0  9995,2 53895  53.2171  72.8174 0001868  51.2019 308.9140 15.08836017 66962,6917.893,95.438,541.05,538.465,0.0
53895.0,STARLINK-5032,PAYLOAD,2023-12-04 15:53:07,15.08845149,0.0001364,53.2186,72.2171,70.5227,289.5912,-0.00010264,-1.921e-05,0.0,0 STARLINK-5032,1 53895U 22119K   23338.66188840 -.00001921  00000-0 -10264-3 0  9996,2 53895  53.2186  72.2171 0001364  70.5227 289.5912 15.08845149 66984,6917.865,95.437,540.673,538.786,0.0
53895.0,STARLINK-5032,PAYLOAD,2023-12-05 10:57:43,15.08840316,0.0001409,53.2177,68.6511,62.2117,297.9018,0.00036355,5.503e-05,0.0,0 STARLINK-5032,1 53895U 22119K   23339.45675785  .00005503  00000-0  36355-3 0  9990,2 53895  53.2177  68.6511 0001409  62.2117 297.9018 15.08840316 66685,6917.879,95.438,540.719,538.77,0.0
53895.0,STARLINK-5032,PAYLOAD,2023-12-05 12:33:07,15.08834046,0.0001933,53.2179,68.3574,55.5536,304.5639,0.00037813,5.734e-05,0.0,0 STARLINK-5032,1 53895U 22119K   23339.52300242  .00005734  00000-0  37813-3 0  9997,2 53895  53.2179  68.3574 0001933  55.5536 304.5639 15.08834046 67111,6917.899,95.438,541.101,538.426,0.0
53895.0,STARLINK-5032,PAYLOAD,2023-12-06 10:48:31,15.08841581,0.0001337,53.2176,64.1876,101.6606,258.4536,1.3458e-06,-2.66e-06,0.0,0 STARLINK-5032,1 53895U 22119K   23340.45036837 -.00000266  00000-0  13458-5 0  9994,2 53895  53.2176  64.1876 0001337 101.6606 258.4536 15.08841581 66839,6917.876,95.437,540.665,538.816,0.0
53895.0,STARLINK-5032,PAYLOAD,2023-12-06 12:23:54,15.08841323,0.0001253,53.218,63.89,101.9648,258.1484,-4.7774e-06,-3.64e-06,0.0,0 STARLINK-5032,1 53895U 22119K   23340.51660839 -.00000364  00000-0 -47774-5 0  9994,2 53895  53.2180  63.8900 0001253 101.9648 258.1484 15.08841323 67265,6917.876,95.437,540.608,538.875,0.0
53895.0,STARLINK-5032,PAYLOAD,2023-12-07 12:14:41,15.08849448,0.0001342,53.2182,59.4312,93.5497,266.5649,-0.0001104,-2.045e-05,0.0,0 STARLINK-5032,1 53895U 22119K   23341.51020513 -.00002045  00000-0 -11040-3 0  9997,2 53895  53.2182  59.4312 0001342  93.5497 266.5649 15.08849448 66993,6917.852,95.437,540.645,538.788,0.0
53895.0,STARLINK-5032,PAYLOAD,2023-12-08 12:05:28,15.0883703,0.0001422,53.2184,54.9713,92.8843,267.2312,5.3374e-05,5.62e-06,0.0,0 STARLINK-5032,1 53895U 22119K   23342.50380710  .00000562  00000-0  53374-4 0  9992,2 53895  53.2184  54.9713 0001422  92.8843 267.2312 15.08837030 67143,6917.889,95.438,540.738,538.771,0.0
53895.0,STARLINK-5032,PAYLOAD,2023-12-09 10:20:53,15.08838118,0.000147,53.2185,50.8091,97.699,262.4169,2.3925e-05,9.3e-07,0.0,0 STARLINK-5032,1 53895U 22119K   23343.43116947  .00000093  00000-0  23925-4 0  9992,2 53895  53.2185  50.8091 0001470  97.6990 262.4169 15.08838118 67704,6917.886,95.438,540.768,538.734,0.0
53895.0,STARLINK-5032,PAYLOAD,2023-12-10 11:47:03,15.08831548,0.000141,53.2175,46.0524,100.0527,260.0624,9.3579e-05,1.201e-05,0.0,0 STARLINK-5032,1 53895U 22119K   23344.49101228  .00001201  00000-0  93579-4 0  9999,2 53895  53.2175  46.0524 0001410 100.0527 260.0624 15.08831548 67441,6917.906,95.438,540.747,538.796,0.0
53895.0,STARLINK-5032,PAYLOAD,2023-12-11 11:37:48,15.08861738,0.0001311,53.2177,41.5919,105.2263,254.8874,0.00022082,3.23e-05,0.0,0 STARLINK-5032,1 53895U 22119K   23345.48458966  .00003230  00000-0  22082-3 0  9997,2 53895  53.2177  41.5919 0001311 105.2263 254.8874 15.08861738 67593,6917.814,95.436,540.586,538.772,0.0
53895.0,STARLINK-5032,PAYLOAD,2023-12-12 09:53:12,15.08860519,0.0001705,53.2183,37.4268,71.2699,288.8478,0.00015261,2.143e-05,0.0,0 STARLINK-5032,1 53895U 22119K   23346.41194547  .00002143  00000-0  15261-3 0  9996,2 53895  53.2183  37.4268 0001705  71.2699 288.8478 15.08860519 67732,6917.818,95.436,540.862,538.503,0.0
53895.0,STARLINK-5032,PAYLOAD,2023-12-13 09:44:00,15.0884394,0.0001636,53.2189,32.9667,131.3432,228.7701,-0.00015943,-2.825e-05,0.0,0 STARLINK-5032,1 53895U 22119K   23347.40555985 -.00002825  00000-0 -15943-3 0  9999,2 53895  53.2189  32.9667 0001636 131.3432 228.7701 15.08843940 67884,6917.868,95.437,540.865,538.602,0.0
53895.0,STARLINK-5032,PAYLOAD,2023-12-14 09:34:48,15.08839444,0.0001528,53.2182,28.5088,118.6738,241.4408,-0.0002301,-3.948e-05,0.0,0 STARLINK-5032,1 53895U 22119K   23348.39916704 -.00003948  00000-0 -23010-3 0  9999,2 53895  53.2182  28.5088 0001528 118.6738 241.4408 15.08839444 68030,6917.882,95.438,540.804,538.69,0.0
53895.0,STARLINK-5032,PAYLOAD,2023-12-15 09:25:35,15.08830045,0.0001433,53.2181,24.0462,85.3554,274.7602,0.00011091,1.477e-05,0.0,0 STARLINK-5032,1 53895U 22119K   23349.39276778  .00001477  00000-0  11091-3 0  9999,2 53895  53.2181  24.0462 0001433  85.3554 274.7602 15.08830045 68603,6917.911,95.438,540.767,538.784,0.0
53895.0,STARLINK-5032,PAYLOAD,2023-12-15 23:44:04,15.08830536,0.000152,53.2179,21.376,98.4445,261.6719,4.1362e-06,-2.22e-06,0.0,0 STARLINK-5032,1 53895U 22119K   23349.98893761 -.00000222  00000-0  41362-5 0  9995,2 53895  53.2179  21.3760 0001520  98.4445 261.6719 15.08830536 68274,6917.909,95.438,540.826,538.723,0.0
53895.0,STARLINK-5032,PAYLOAD,2023-12-16 09:16:23,15.08830115,0.0001553,53.2188,19.5923,108.8736,251.2425,-2.9557e-06,-3.35e-06,0.0,0 STARLINK-5032,1 53895U 22119K   23350.38638015 -.00000335  00000-0 -29557-5 0  9998,2 53895  53.2188  19.5923 0001553 108.8736 251.2425 15.08830115 68754,6917.911,95.438,540.85,538.701,0.0
53895.0,STARLINK-5032,PAYLOAD,2023-12-17 09:07:09,15.08843949,0.0001332,53.2182,15.1289,97.0298,263.0845,2.4673e-05,1.05e-06,0.0,0 STARLINK-5032,1 53895U 22119K   23351.37997537  .00000105  00000-0  24673-4 0  9991,2 53895  53.2182  15.1289 0001332  97.0298 263.0845 15.08843949 68488,6917.868,95.437,540.655,538.812,0.0
53895.0,STARLINK-5032,PAYLOAD,2023-12-18 08:57:59,15.08819648,0.0001307,53.2194,10.6672,80.8063,279.3077,-1.7687e-05,-5.69e-06,0.0,0 STARLINK-5032,1 53895U 22119K   23352.37359971 -.00000569  00000-0 -17687-4 0  9999,2 53895  53.2194  10.6672 0001307  80.8063 279.3077 15.08819648 68632,6917.943,95.439,540.712,538.903,0.0
53895.0,STARLINK-5032,PAYLOAD,2023-12-19 08:48:44,15.08853281,0.0002271,53.2191,6.2069,51.5338,308.5858,0.00017895,2.562e-05,0.0,0 STARLINK-5032,1 53895U 22119K   23353.36717915  .00002562  00000-0  17895-3 0  9998,2 53895  53.2191   6.2069 0002271  51.5338 308.5858 15.08853281 68780,6917.84,95.437,541.276,538.134,0.0
53895.0,STARLINK-5032,PAYLOAD,2023-12-20 07:04:09,15.08835793,0.0001428,53.2188,2.0477,76.7795,283.3357,0.00015253,2.14e-05,0.0,0 STARLINK-5032,1 53895U 22119K   23354.29454903  .00002140  00000-0  15253-3 0  9994,2 53895  53.2188   2.0477 0001428  76.7795 283.3357 15.08835793 68920,6917.893,95.438,540.746,538.77,0.0
53895.0,STARLINK-5032,PAYLOAD,2023-12-21 03:44:08,15.08857155,0.0001427,53.2187,358.1818,73.7004,286.4145,-2.7534e-05,-7.26e-06,0.0,0 STARLINK-5032,1 53895U 22119K   23355.15565937 -.00000726  00000-0 -27534-4 0  9996,2 53895  53.2187 358.1818 0001427  73.7004 286.4145 15.08857155 69052,6917.828,95.436,540.68,538.706,0.0
53895.0,STARLINK-5032,PAYLOAD,2023-12-21 06:54:54,15.08860735,0.0001612,53.2181,357.5865,74.9784,285.1387,8.4305e-06,-1.54e-06,0.0,0 STARLINK-5032,1 53895U 22119K   23355.28813483 -.00000154  00000-0  84305-5 0  9996,2 53895  53.2181 357.5865 0001612  74.9784 285.1387 15.08860735 69495,6917.817,95.436,540.797,538.567,0.0
53895.0,STARLINK-5032,PAYLOAD,2023-12-22 03:34:56,15.08838999,0.0001424,53.22,353.7168,103.3637,256.7514,-4.8974e-05,-1.067e-05,0.0,0 STARLINK-5032,1 53895U 22119K   23356.14926631 -.00001067  00000-0 -48974-4 0  9998,2 53895  53.2200 353.7168 0001424 103.3637 256.7514 15.08838999 69208,6917.883,95.438,540.734,538.763,0.0
